[
    {
        "Altitude(m)": 557544.742819793,
        "Argument of Periapsis(deg)": 0.013245982221427002,
        "Eccentricity": 0.0,
        "Inclination(deg)": 53.0,
        "Latitude(deg)": 42.75841355024916,
        "Longitude(deg)": 129.5579293919271,
        "Mean Anomaly(deg)": 122.00138573515513,
        "RAAN(deg)": 94.98028673705603,
        "Satellite Name": "Starlink Shell 1 424",
        "Satellite Number": 424,
        "Semi-Major Axis(m)": 6931778.249405717,
        "Time(s)": 380
    },
    {
        "Altitude(m)": 557464.6949856981,
        "Argument of Periapsis(deg)": 0.013594560700938237,
        "Eccentricity": 0.0,
        "Inclination(deg)": 53.0,
        "Latitude(deg)": 42.3945819872173,
        "Longitude(deg)": 130.20907818144718,
        "Mean Anomaly(deg)": 122.62821693871187,
        "RAAN(deg)": 94.97976796697857,
        "Satellite Name": "Starlink Shell 1 424",
        "Satellite Number": 424,
        "Semi-Major Axis(m)": 6931778.249405717,
        "Time(s)": 390
    },
    {
        "Altitude(m)": 557384.0804058864,
        "Argument of Periapsis(deg)": 0.013943139180449475,
        "Eccentricity": 0.0,
        "Inclination(deg)": 53.0,
        "Latitude(deg)": 42.02659339647094,
        "Longitude(deg)": 130.8522363536573,
        "Mean Anomaly(deg)": 123.2550481422686,
        "RAAN(deg)": 94.9792491969011,
        "Satellite Name": "Starlink Shell 1 424",
        "Satellite Number": 424,
        "Semi-Major Axis(m)": 6931778.249405717,
        "Time(s)": 400
    },
    {
        "Altitude(m)": 557302.9504850307,
        "Argument of Periapsis(deg)": 0.014291717659960712,
        "Eccentricity": 0.0,
        "Inclination(deg)": 53.0,
        "Latitude(deg)": 41.654546882793404,
        "Longitude(deg)": 131.48751050277707,
        "Mean Anomaly(deg)": 123.88187934582534,
        "RAAN(deg)": 94.97873042682362,
        "Satellite Name": "Starlink Shell 1 424",
        "Satellite Number": 424,
        "Semi-Major Axis(m)": 6931778.249405717,
        "Time(s)": 410
    },
    {
        "Altitude(m)": 557221.3570991339,
        "Argument of Periapsis(deg)": 0.014640296139471948,
        "Eccentricity": 0.0,
        "Inclination(deg)": 53.0,
        "Latitude(deg)": 41.27853969613315,
        "Longitude(deg)": 132.11500936463565,
        "Mean Anomaly(deg)": 124.50871054938202,
        "RAAN(deg)": 94.97821165674615,
        "Satellite Name": "Starlink Shell 1 424",
        "Satellite Number": 424,
        "Semi-Major Axis(m)": 6931778.249405717,
        "Time(s)": 420
    },
    {
        "Altitude(m)": 557139.3525693615,
        "Argument of Periapsis(deg)": 0.014988874618983185,
        "Eccentricity": 0.0,
        "Inclination(deg)": 53.0,
        "Latitude(deg)": 40.898667225930915,
        "Longitude(deg)": 132.73484399755554,
        "Mean Anomaly(deg)": 125.13554175293875,
        "RAAN(deg)": 94.97769288666868,
        "Satellite Name": "Starlink Shell 1 424",
        "Satellite Number": 424,
        "Semi-Major Axis(m)": 6931778.249405717,
        "Time(s)": 430
    },
    {
        "Altitude(m)": 557056.9896356164,
        "Argument of Periapsis(deg)": 0.015337453098494424,
        "Eccentricity": 0.0,
        "Inclination(deg)": 53.0,
        "Latitude(deg)": 40.51502299987686,
        "Longitude(deg)": 133.34712798135547,
        "Mean Anomaly(deg)": 125.76237295649545,
        "RAAN(deg)": 94.9771741165912,
        "Satellite Name": "Starlink Shell 1 424",
        "Satellite Number": 424,
        "Semi-Major Axis(m)": 6931778.249405717,
        "Time(s)": 440
    },
    {
        "Altitude(m)": 556974.3214298732,
        "Argument of Periapsis(deg)": 0.01568603157800566,
        "Eccentricity": 0.0,
        "Inclination(deg)": 53.0,
        "Latitude(deg)": 40.12769868674134,
        "Longitude(deg)": 133.9519761212439,
        "Mean Anomaly(deg)": 126.38920416005217,
        "RAAN(deg)": 94.97665534651374,
        "Satellite Name": "Starlink Shell 1 424",
        "Satellite Number": 424,
        "Semi-Major Axis(m)": 6931778.249405717,
        "Time(s)": 450
    },
    {
        "Altitude(m)": 556891.4014492763,
        "Argument of Periapsis(deg)": 0.0160346100575169,
        "Eccentricity": 0.0,
        "Inclination(deg)": 53.0,
        "Latitude(deg)": 39.73678410293685,
        "Longitude(deg)": 134.5495046819319,
        "Mean Anomaly(deg)": 127.01603536360888,
        "RAAN(deg)": 94.97613657643626,
        "Satellite Name": "Starlink Shell 1 424",
        "Satellite Number": 424,
        "Semi-Major Axis(m)": 6931778.249405717,
        "Time(s)": 460
    },
    {
        "Altitude(m)": 556808.2835290178,
        "Argument of Periapsis(deg)": 0.016383188537028134,
        "Eccentricity": 0.0,
        "Inclination(deg)": 53.0,
        "Latitude(deg)": 39.34236722248702,
        "Longitude(deg)": 135.13983163861906,
        "Mean Anomaly(deg)": 127.6428665671656,
        "RAAN(deg)": 94.97561780635878,
        "Satellite Name": "Starlink Shell 1 424",
        "Satellite Number": 424,
        "Semi-Major Axis(m)": 6931778.249405717,
        "Time(s)": 470
    },
    {
        "Altitude(m)": 556725.0218150009,
        "Argument of Periapsis(deg)": 0.01673176701653937,
        "Eccentricity": 0.0,
        "Inclination(deg)": 53.0,
        "Latitude(deg)": 38.94453419009454,
        "Longitude(deg)": 135.72307543146408,
        "Mean Anomaly(deg)": 128.26969777072236,
        "RAAN(deg)": 94.9750990362813,
        "Satellite Name": "Starlink Shell 1 424",
        "Satellite Number": 424,
        "Semi-Major Axis(m)": 6931778.249405717,
        "Time(s)": 480
    },
    {
        "Altitude(m)": 556641.6707363192,
        "Argument of Periapsis(deg)": 0.017080345496050607,
        "Eccentricity": 0.0,
        "Inclination(deg)": 53.0,
        "Latitude(deg)": 38.54336933701274,
        "Longitude(deg)": 136.29935524873974,
        "Mean Anomaly(deg)": 128.89652897427905,
        "RAAN(deg)": 94.97458026620384,
        "Satellite Name": "Starlink Shell 1 424",
        "Satellite Number": 424,
        "Semi-Major Axis(m)": 6931778.249405717,
        "Time(s)": 490
    },
    {
        "Altitude(m)": 556558.284977548,
        "Argument of Periapsis(deg)": 0.017428923975561842,
        "Eccentricity": 0.0,
        "Inclination(deg)": 53.0,
        "Latitude(deg)": 38.13895519944403,
        "Longitude(deg)": 136.8687913252243,
        "Mean Anomaly(deg)": 129.52336017783574,
        "RAAN(deg)": 94.97406149612637,
        "Satellite Name": "Starlink Shell 1 424",
        "Satellite Number": 424,
        "Semi-Major Axis(m)": 6931778.249405717,
        "Time(s)": 500
    },
    {
        "Altitude(m)": 556474.9194508719,
        "Argument of Periapsis(deg)": 0.01777750245507308,
        "Eccentricity": 0.0,
        "Inclination(deg)": 53.0,
        "Latitude(deg)": 37.73137253920675,
        "Longitude(deg)": 137.43150374235933,
        "Mean Anomaly(deg)": 130.15019138139243,
        "RAAN(deg)": 94.9735427260489,
        "Satellite Name": "Starlink Shell 1 424",
        "Satellite Number": 424,
        "Semi-Major Axis(m)": 6931778.249405717,
        "Time(s)": 510
    },
    {
        "Altitude(m)": 556391.6292680264,
        "Argument of Periapsis(deg)": 0.018126080934584315,
        "Eccentricity": 0.0,
        "Inclination(deg)": 53.0,
        "Latitude(deg)": 37.32070036642165,
        "Longitude(deg)": 137.9876127553176,
        "Mean Anomaly(deg)": 130.77702258494918,
        "RAAN(deg)": 94.97302395597143,
        "Satellite Name": "Starlink Shell 1 424",
        "Satellite Number": 424,
        "Semi-Major Axis(m)": 6931778.249405717,
        "Time(s)": 520
    },
    {
        "Altitude(m)": 556308.4697121613,
        "Argument of Periapsis(deg)": 0.018474659414095554,
        "Eccentricity": 0.0,
        "Inclination(deg)": 53.0,
        "Latitude(deg)": 36.90701596398899,
        "Longitude(deg)": 138.5372391334926,
        "Mean Anomaly(deg)": 131.40385378850587,
        "RAAN(deg)": 94.97250518589394,
        "Satellite Name": "Starlink Shell 1 424",
        "Satellite Number": 424,
        "Semi-Major Axis(m)": 6931778.249405717,
        "Time(s)": 530
    },
    {
        "Altitude(m)": 556225.4962094944,
        "Argument of Periapsis(deg)": 0.018823237893606792,
        "Eccentricity": 0.0,
        "Inclination(deg)": 53.0,
        "Latitude(deg)": 36.49039491364393,
        "Longitude(deg)": 139.08050300091818,
        "Mean Anomaly(deg)": 132.0306849920626,
        "RAAN(deg)": 94.97198641581647,
        "Satellite Name": "Starlink Shell 1 424",
        "Satellite Number": 424,
        "Semi-Major Axis(m)": 6931778.249405717,
        "Time(s)": 540
    },
    {
        "Altitude(m)": 556142.7643009304,
        "Argument of Periapsis(deg)": 0.019171816373118027,
        "Eccentricity": 0.0,
        "Inclination(deg)": 53.0,
        "Latitude(deg)": 36.07091112338537,
        "Longitude(deg)": 139.61752420175483,
        "Mean Anomaly(deg)": 132.65751619561934,
        "RAAN(deg)": 94.97146764573901,
        "Satellite Name": "Starlink Shell 1 424",
        "Satellite Number": 424,
        "Semi-Major Axis(m)": 6931778.249405717,
        "Time(s)": 550
    },
    {
        "Altitude(m)": 556060.3296134942,
        "Argument of Periapsis(deg)": 0.019520394852629266,
        "Eccentricity": 0.0,
        "Inclination(deg)": 53.0,
        "Latitude(deg)": 35.64863685609469,
        "Longitude(deg)": 140.14842267735816,
        "Mean Anomaly(deg)": 133.28434739917608,
        "RAAN(deg)": 94.97094887566153,
        "Satellite Name": "Starlink Shell 1 424",
        "Satellite Number": 424,
        "Semi-Major Axis(m)": 6931778.249405717,
        "Time(s)": 560
    }
]